{
  "type": "FeatureCollection",
  "features": [
    {
      "type": "Feature",
      "properties": {
        "norad_id": 43647,
        "name": "BEIDOU-3 M16 (C35)",
        "group": "gnss",
        "lat": -54.06581375126387,
        "lon": -136.74721055014015,
        "alt_km": 21539.01153012258,
        "timestamp": "2025-12-15T19:00:45.599380+00:00",
        "meta_object_name": "BEIDOU-3 M16 (C35)",
        "meta_object_id": "2018-078A",
        "meta_epoch": "2025-12-13T05:39:20.780352",
        "meta_mean_motion": 1.8623234,
        "meta_eccentricity": 0.00072054,
        "meta_inclination": 54.2615,
        "meta_ra_of_asc_node": 306.5038,
        "meta_arg_of_pericenter": 19.3609,
        "meta_mean_anomaly": 340.6562,
        "meta_ephemeris_type": 0,
        "meta_classification_type": "U",
        "meta_norad_cat_id": 43647,
        "meta_element_set_no": 999,
        "meta_rev_at_epoch": 4869,
        "meta_bstar": 0,
        "meta_mean_motion_dot": -9.7e-07,
        "meta_mean_motion_ddot": 0,
        "tle_line1": "1 43647U 18078A   25347.23565718 -.00000097  00000+0  00000+0 0  9991",
        "tle_line2": "2 43647  54.2615 306.5038 0007205  19.3609 340.6562  1.86232340 48698"
      },
      "geometry": {
        "type": "Point",
        "coordinates": [
          -136.74721055014015,
          -54.06581375126387
        ]
      }
    },
    {
      "type": "Feature",
      "properties": {
        "norad_id": 43648,
        "name": "BEIDOU-3 M15 (C34)",
        "group": "gnss",
        "lat": -6.062811941673062,
        "lon": 130.77714788658486,
        "alt_km": 21539.2380826613,
        "timestamp": "2025-12-15T19:00:45.599394+00:00",
        "meta_object_name": "BEIDOU-3 M15 (C34)",
        "meta_object_id": "2018-078B",
        "meta_epoch": "2025-12-14T10:31:50.376000",
        "meta_mean_motion": 1.86231962,
        "meta_eccentricity": 0.00037442,
        "meta_inclination": 54.256,
        "meta_ra_of_asc_node": 306.4619,
        "meta_arg_of_pericenter": 18.2942,
        "meta_mean_anomaly": 341.7074,
        "meta_ephemeris_type": 0,
        "meta_classification_type": "U",
        "meta_norad_cat_id": 43648,
        "meta_element_set_no": 999,
        "meta_rev_at_epoch": 4873,
        "meta_bstar": 0,
        "meta_mean_motion_dot": -1e-06,
        "meta_mean_motion_ddot": 0,
        "tle_line1": "1 43648U 18078B   25348.43877750 -.00000100  00000+0  00000+0 0  9992",
        "tle_line2": "2 43648  54.2560 306.4619 0003744  18.2942 341.7074  1.86231962 48738"
      },
      "geometry": {
        "type": "Point",
        "coordinates": [
          130.77714788658486,
          -6.062811941673062
        ]
      }
    },
    {
      "type": "Feature",
      "properties": {
        "norad_id": 43683,
        "name": "BEIDOU-3 G1 (C59)",
        "group": "gnss",
        "lat": 1.9183722476714657,
        "lon": 149.89843176172403,
        "alt_km": 35779.5942735005,
        "timestamp": "2025-12-15T19:00:45.599408+00:00",
        "meta_object_name": "BEIDOU-3 G1 (C59)",
        "meta_object_id": "2018-085A",
        "meta_epoch": "2025-12-14T22:38:45.675744",
        "meta_mean_motion": 1.00270224,
        "meta_eccentricity": 0.00016305,
        "meta_inclination": 2.6134,
        "meta_ra_of_asc_node": 102.9077,
        "meta_arg_of_pericenter": 55.4139,
        "meta_mean_anomaly": 45.2856,
        "meta_ephemeris_type": 0,
        "meta_classification_type": "U",
        "meta_norad_cat_id": 43683,
        "meta_element_set_no": 999,
        "meta_rev_at_epoch": 2621,
        "meta_bstar": 0,
        "meta_mean_motion_dot": -2.58e-06,
        "meta_mean_motion_ddot": 0,
        "tle_line1": "1 43683U 18085A   25348.94358421 -.00000258  00000+0  00000+0 0  9998",
        "tle_line2": "2 43683   2.6134 102.9077 0001630  55.4139  45.2856  1.00270224 26214"
      },
      "geometry": {
        "type": "Point",
        "coordinates": [
          149.89843176172403,
          1.9183722476714657
        ]
      }
    },
    {
      "type": "Feature",
      "properties": {
        "norad_id": 43687,
        "name": "COSMOS 2529 (757)",
        "group": "gnss",
        "lat": 57.80607630015667,
        "lon": -111.28605983104582,
        "alt_km": 19141.704429227404,
        "timestamp": "2025-12-15T19:00:45.599420+00:00",
        "meta_object_name": "COSMOS 2529 (757)",
        "meta_object_id": "2018-086A",
        "meta_epoch": "2025-12-14T07:02:10.344192",
        "meta_mean_motion": 2.13101932,
        "meta_eccentricity": 0.00071555,
        "meta_inclination": 64.2921,
        "meta_ra_of_asc_node": 198.8359,
        "meta_arg_of_pericenter": 254.022,
        "meta_mean_anomaly": 105.9754,
        "meta_ephemeris_type": 0,
        "meta_classification_type": "U",
        "meta_norad_cat_id": 43687,
        "meta_element_set_no": 999,
        "meta_rev_at_epoch": 5534,
        "meta_bstar": 0,
        "meta_mean_motion_dot": 9.3e-07,
        "meta_mean_motion_ddot": 0,
        "tle_line1": "1 43687U 18086A   25348.29317528  .00000093  00000+0  00000+0 0  9990",
        "tle_line2": "2 43687  64.2921 198.8359 0007155 254.0220 105.9754  2.13101932 55340"
      },
      "geometry": {
        "type": "Point",
        "coordinates": [
          -111.28605983104582,
          57.80607630015667
        ]
      }
    },
    {
      "type": "Feature",
      "properties": {
        "norad_id": 43706,
        "name": "BEIDOU-3 M17 (C36)",
        "group": "gnss",
        "lat": 53.201188331650485,
        "lon": -96.46404717305035,
        "alt_km": 21533.918559442835,
        "timestamp": "2025-12-15T19:00:45.599432+00:00",
        "meta_object_name": "BEIDOU-3 M17 (C36)",
        "meta_object_id": "2018-093A",
        "meta_epoch": "2025-12-14T07:59:38.666688",
        "meta_mean_motion": 1.86228504,
        "meta_eccentricity": 0.00061786,
        "meta_inclination": 54.1727,
        "meta_ra_of_asc_node": 188.5675,
        "meta_arg_of_pericenter": 307.5384,
        "meta_mean_anomaly": 235.2938,
        "meta_ephemeris_type": 0,
        "meta_classification_type": "U",
        "meta_norad_cat_id": 43706,
        "meta_element_set_no": 999,
        "meta_rev_at_epoch": 4809,
        "meta_bstar": 0,
        "meta_mean_motion_dot": 1.06e-06,
        "meta_mean_motion_ddot": 0,
        "tle_line1": "1 43706U 18093A   25348.33308642  .00000106  00000+0  00000+0 0  9997",
        "tle_line2": "2 43706  54.1727 188.5675 0006178 307.5384 235.2938  1.86228504 48099"
      },
      "geometry": {
        "type": "Point",
        "coordinates": [
          -96.46404717305035,
          53.201188331650485
        ]
      }
    },
    {
      "type": "Feature",
      "properties": {
        "norad_id": 43707,
        "name": "BEIDOU-3 M18 (C37)",
        "group": "gnss",
        "lat": 4.91524699020553,
        "lon": 4.953554384197745,
        "alt_km": 21545.76363306635,
        "timestamp": "2025-12-15T19:00:45.599442+00:00",
        "meta_object_name": "BEIDOU-3 M18 (C37)",
        "meta_object_id": "2018-093B",
        "meta_epoch": "2025-12-12T20:21:07.427232",
        "meta_mean_motion": 1.86226583,
        "meta_eccentricity": 0.00063344,
        "meta_inclination": 54.1732,
        "meta_ra_of_asc_node": 188.6097,
        "meta_arg_of_pericenter": 352.9631,
        "meta_mean_anomaly": 7.0898,
        "meta_ephemeris_type": 0,
        "meta_classification_type": "U",
        "meta_norad_cat_id": 43707,
        "meta_element_set_no": 999,
        "meta_rev_at_epoch": 4806,
        "meta_bstar": 0,
        "meta_mean_motion_dot": 8.8e-07,
        "meta_mean_motion_ddot": 0,
        "tle_line1": "1 43707U 18093B   25346.84800263  .00000088  00000+0  00000+0 0  9997",
        "tle_line2": "2 43707  54.1732 188.6097 0006334 352.9631   7.0898  1.86226583 48060"
      },
      "geometry": {
        "type": "Point",
        "coordinates": [
          4.953554384197745,
          4.91524699020553
        ]
      }
    },
    {
      "type": "Feature",
      "properties": {
        "norad_id": 43873,
        "name": "GPS BIII-1  (PRN 04)",
        "group": "gnss",
        "lat": -6.057805134763417,
        "lon": -76.41190585786175,
        "alt_km": 20085.62755858753,
        "timestamp": "2025-12-15T19:00:45.599454+00:00",
        "meta_object_name": "GPS BIII-1  (PRN 04)",
        "meta_object_id": "2018-109A",
        "meta_epoch": "2025-12-14T18:33:31.413600",
        "meta_mean_motion": 2.00553757,
        "meta_eccentricity": 0.00374,
        "meta_inclination": 55.5684,
        "meta_ra_of_asc_node": 99.4666,
        "meta_arg_of_pericenter": 195.0912,
        "meta_mean_anomaly": 336.5701,
        "meta_ephemeris_type": 0,
        "meta_classification_type": "U",
        "meta_norad_cat_id": 43873,
        "meta_element_set_no": 999,
        "meta_rev_at_epoch": 5137,
        "meta_bstar": 0,
        "meta_mean_motion_dot": -2.6e-07,
        "meta_mean_motion_ddot": 0,
        "tle_line1": "1 43873U 18109A   25348.77328025 -.00000026  00000+0  00000+0 0  9997",
        "tle_line2": "2 43873  55.5684  99.4666 0037400 195.0912 336.5701  2.00553757 51376"
      },
      "geometry": {
        "type": "Point",
        "coordinates": [
          -76.41190585786175,
          -6.057805134763417
        ]
      }
    }
  ]
}